{
  "type": "FeatureCollection",
  "features": [
    {
      "type": "Feature",
      "properties": {
        "OBJECT_NAME": "IRIDIUM 33 DEB",
        "OBJECT_ID": "1997-051QJ",
        "EPOCH": "2025-11-25T04:50:11.557824",
        "MEAN_MOTION": 14.82472914,
        "ECCENTRICITY": 0.00305996,
        "INCLINATION": 86.3238,
        "RA_OF_ASC_NODE": 308.9607,
        "ARG_OF_PERICENTER": 98.675,
        "MEAN_ANOMALY": 261.7941,
        "EPHEMERIS_TYPE": 0,
        "CLASSIFICATION_TYPE": "U",
        "NORAD_CAT_ID": 35488,
        "ELEMENT_SET_NO": 999,
        "REV_AT_EPOCH": 88006,
        "BSTAR": 0.001418627,
        "MEAN_MOTION_DOT": 0.00011507,
        "MEAN_MOTION_DDOT": 0,
        "norad_id": 35488,
        "name": "IRIDIUM 33 DEB",
        "group": "iridium-33-debris",
        "longitude_deg": NaN,
        "latitude_deg": NaN,
        "alt_km": NaN,
        "orbit_class": "HEO",
        "timestamp": "2025-11-30T09:33:02.606126+00:00"
      },
      "geometry": {
        "type": "Point",
        "coordinates": [
          NaN,
          NaN
        ]
      }
    },
    {
      "type": "Feature",
      "properties": {
        "OBJECT_NAME": "IRIDIUM 33 DEB",
        "OBJECT_ID": "1997-051QN",
        "EPOCH": "2025-11-30T00:29:42.807840",
        "MEAN_MOTION": 14.81310269,
        "ECCENTRICITY": 0.0008428,
        "INCLINATION": 86.3556,
        "RA_OF_ASC_NODE": 351.5687,
        "ARG_OF_PERICENTER": 211.3008,
        "MEAN_ANOMALY": 148.7713,
        "EPHEMERIS_TYPE": 0,
        "CLASSIFICATION_TYPE": "U",
        "NORAD_CAT_ID": 35616,
        "ELEMENT_SET_NO": 999,
        "REV_AT_EPOCH": 87386,
        "BSTAR": 0.0018533,
        "MEAN_MOTION_DOT": 0.00014507,
        "MEAN_MOTION_DDOT": 0,
        "norad_id": 35616,
        "name": "IRIDIUM 33 DEB",
        "group": "iridium-33-debris",
        "longitude_deg": NaN,
        "latitude_deg": NaN,
        "alt_km": NaN,
        "orbit_class": "HEO",
        "timestamp": "2025-11-30T09:33:02.606132+00:00"
      },
      "geometry": {
        "type": "Point",
        "coordinates": [
          NaN,
          NaN
        ]
      }
    },
    {
      "type": "Feature",
      "properties": {
        "OBJECT_NAME": "IRIDIUM 33 DEB",
        "OBJECT_ID": "1997-051QQ",
        "EPOCH": "2025-11-27T19:27:47.606688",
        "MEAN_MOTION": 14.52216193,
        "ECCENTRICITY": 0.00308317,
        "INCLINATION": 86.3414,
        "RA_OF_ASC_NODE": 0.0275,
        "ARG_OF_PERICENTER": 70.0508,
        "MEAN_ANOMALY": 290.4015,
        "EPHEMERIS_TYPE": 0,
        "CLASSIFICATION_TYPE": "U",
        "NORAD_CAT_ID": 35618,
        "ELEMENT_SET_NO": 999,
        "REV_AT_EPOCH": 65177,
        "BSTAR": 0.00046503481,
        "MEAN_MOTION_DOT": 1.919e-05,
        "MEAN_MOTION_DDOT": 0,
        "norad_id": 35618,
        "name": "IRIDIUM 33 DEB",
        "group": "iridium-33-debris",
        "longitude_deg": NaN,
        "latitude_deg": NaN,
        "alt_km": NaN,
        "orbit_class": "HEO",
        "timestamp": "2025-11-30T09:33:02.606138+00:00"
      },
      "geometry": {
        "type": "Point",
        "coordinates": [
          NaN,
          NaN
        ]
      }
    },
    {
      "type": "Feature",
      "properties": {
        "OBJECT_NAME": "IRIDIUM 33 DEB",
        "OBJECT_ID": "1997-051QS",
        "EPOCH": "2025-11-29T02:58:54.835392",
        "MEAN_MOTION": 14.37282787,
        "ECCENTRICITY": 0.01468655,
        "INCLINATION": 86.3875,
        "RA_OF_ASC_NODE": 223.1938,
        "ARG_OF_PERICENTER": 303.3843,
        "MEAN_ANOMALY": 55.3372,
        "EPHEMERIS_TYPE": 0,
        "CLASSIFICATION_TYPE": "U",
        "NORAD_CAT_ID": 35620,
        "ELEMENT_SET_NO": 999,
        "REV_AT_EPOCH": 59770,
        "BSTAR": 0.0056954729,
        "MEAN_MOTION_DOT": 0.00019275,
        "MEAN_MOTION_DDOT": 0,
        "norad_id": 35620,
        "name": "IRIDIUM 33 DEB",
        "group": "iridium-33-debris",
        "longitude_deg": NaN,
        "latitude_deg": NaN,
        "alt_km": NaN,
        "orbit_class": "HEO",
        "timestamp": "2025-11-30T09:33:02.606144+00:00"
      },
      "geometry": {
        "type": "Point",
        "coordinates": [
          NaN,
          NaN
        ]
      }
    },
    {
      "type": "Feature",
      "properties": {
        "OBJECT_NAME": "IRIDIUM 33 DEB",
        "OBJECT_ID": "1997-051QU",
        "EPOCH": "2025-11-29T20:19:53.696064",
        "MEAN_MOTION": 15.0222434,
        "ECCENTRICITY": 0.0011635,
        "INCLINATION": 86.2038,
        "RA_OF_ASC_NODE": 269.9395,
        "ARG_OF_PERICENTER": 8.0862,
        "MEAN_ANOMALY": 47.0495,
        "EPHEMERIS_TYPE": 0,
        "CLASSIFICATION_TYPE": "U",
        "NORAD_CAT_ID": 35622,
        "ELEMENT_SET_NO": 999,
        "REV_AT_EPOCH": 87166,
        "BSTAR": 0.004683,
        "MEAN_MOTION_DOT": 0.00062279,
        "MEAN_MOTION_DDOT": 0,
        "norad_id": 35622,
        "name": "IRIDIUM 33 DEB",
        "group": "iridium-33-debris",
        "longitude_deg": NaN,
        "latitude_deg": NaN,
        "alt_km": NaN,
        "orbit_class": "HEO",
        "timestamp": "2025-11-30T09:33:02.606152+00:00"
      },
      "geometry": {
        "type": "Point",
        "coordinates": [
          NaN,
          NaN
        ]
      }
    },
    {
      "type": "Feature",
      "properties": {
        "OBJECT_NAME": "IRIDIUM 33 DEB",
        "OBJECT_ID": "1997-051RA",
        "EPOCH": "2025-11-29T21:27:20.963232",
        "MEAN_MOTION": 14.67294117,
        "ECCENTRICITY": 0.0011983,
        "INCLINATION": 86.3589,
        "RA_OF_ASC_NODE": 14.8037,
        "ARG_OF_PERICENTER": 26.1633,
        "MEAN_ANOMALY": 334.0184,
        "EPHEMERIS_TYPE": 0,
        "CLASSIFICATION_TYPE": "U",
        "NORAD_CAT_ID": 35628,
        "ELEMENT_SET_NO": 999,
        "REV_AT_EPOCH": 86258,
        "BSTAR": 0.001462,
        "MEAN_MOTION_DOT": 8.277e-05,
        "MEAN_MOTION_DDOT": 0,
        "norad_id": 35628,
        "name": "IRIDIUM 33 DEB",
        "group": "iridium-33-debris",
        "longitude_deg": NaN,
        "latitude_deg": NaN,
        "alt_km": NaN,
        "orbit_class": "HEO",
        "timestamp": "2025-11-30T09:33:02.606158+00:00"
      },
      "geometry": {
        "type": "Point",
        "coordinates": [
          NaN,
          NaN
        ]
      }
    },
    {
      "type": "Feature",
      "properties": {
        "OBJECT_NAME": "IRIDIUM 33 DEB",
        "OBJECT_ID": "1997-051RD",
        "EPOCH": "2025-11-29T21:32:56.353344",
        "MEAN_MOTION": 14.47255608,
        "ECCENTRICITY": 0.0017868,
        "INCLINATION": 86.3679,
        "RA_OF_ASC_NODE": 26.5041,
        "ARG_OF_PERICENTER": 156.9464,
        "MEAN_ANOMALY": 330.0099,
        "EPHEMERIS_TYPE": 0,
        "CLASSIFICATION_TYPE": "U",
        "NORAD_CAT_ID": 35631,
        "ELEMENT_SET_NO": 999,
        "REV_AT_EPOCH": 87011,
        "BSTAR": 0.00038535,
        "MEAN_MOTION_DOT": 1.431e-05,
        "MEAN_MOTION_DDOT": 0,
        "norad_id": 35631,
        "name": "IRIDIUM 33 DEB",
        "group": "iridium-33-debris",
        "longitude_deg": NaN,
        "latitude_deg": NaN,
        "alt_km": NaN,
        "orbit_class": "HEO",
        "timestamp": "2025-11-30T09:33:02.606165+00:00"
      },
      "geometry": {
        "type": "Point",
        "coordinates": [
          NaN,
          NaN
        ]
      }
    },
    {
      "type": "Feature",
      "properties": {
        "OBJECT_NAME": "IRIDIUM 33 DEB",
        "OBJECT_ID": "1997-051RJ",
        "EPOCH": "2025-11-22T11:10:08.054400",
        "MEAN_MOTION": 14.20461694,
        "ECCENTRICITY": 0.0149984,
        "INCLINATION": 86.1015,
        "RA_OF_ASC_NODE": 30.4952,
        "ARG_OF_PERICENTER": 343.7981,
        "MEAN_ANOMALY": 73.9036,
        "EPHEMERIS_TYPE": 0,
        "CLASSIFICATION_TYPE": "U",
        "NORAD_CAT_ID": 35680,
        "ELEMENT_SET_NO": 999,
        "REV_AT_EPOCH": 60413,
        "BSTAR": 0.0025025,
        "MEAN_MOTION_DOT": 6.029e-05,
        "MEAN_MOTION_DDOT": 0,
        "norad_id": 35680,
        "name": "IRIDIUM 33 DEB",
        "group": "iridium-33-debris",
        "longitude_deg": NaN,
        "latitude_deg": NaN,
        "alt_km": NaN,
        "orbit_class": "HEO",
        "timestamp": "2025-11-30T09:33:02.606171+00:00"
      },
      "geometry": {
        "type": "Point",
        "coordinates": [
          NaN,
          NaN
        ]
      }
    },
    {
      "type": "Feature",
      "properties": {
        "OBJECT_NAME": "IRIDIUM 33 DEB",
        "OBJECT_ID": "1997-051RX",
        "EPOCH": "2025-11-29T06:18:15.081984",
        "MEAN_MOTION": 14.70703742,
        "ECCENTRICITY": 0.00190438,
        "INCLINATION": 86.3294,
        "RA_OF_ASC_NODE": 331.5251,
        "ARG_OF_PERICENTER": 242.9991,
        "MEAN_ANOMALY": 116.9281,
        "EPHEMERIS_TYPE": 0,
        "CLASSIFICATION_TYPE": "U",
        "NORAD_CAT_ID": 35744,
        "ELEMENT_SET_NO": 999,
        "REV_AT_EPOCH": 87133,
        "BSTAR": 0.0011432215,
        "MEAN_MOTION_DOT": 7.007e-05,
        "MEAN_MOTION_DDOT": 0,
        "norad_id": 35744,
        "name": "IRIDIUM 33 DEB",
        "group": "iridium-33-debris",
        "longitude_deg": NaN,
        "latitude_deg": NaN,
        "alt_km": NaN,
        "orbit_class": "HEO",
        "timestamp": "2025-11-30T09:33:02.606181+00:00"
      },
      "geometry": {
        "type": "Point",
        "coordinates": [
          NaN,
          NaN
        ]
      }
    }
  ]
}